POLYTECH-UNIVERSE 3 (R*)
1 57191U 23091AB  26060.53951036  .00006686  00000+0  33117-3 0  9997
2 57191  97.5200 119.0337 0016987 140.2003 220.0480 15.17975549147611
UTMN 2 (RS27S)          
1 57203U 23091AP  26060.52425302  .00016954  00000+0  59965-3 0  9990
2 57203  97.5223 126.4143 0009943 101.5636 258.6720 15.29191901148073
KUZGTU 1 (RS47S)        
1 57217U 23091AV  26060.54656834  .00015401  00000+0  57857-3 0  9997
2 57217  97.5208 124.0703 0012967 115.4287 244.8295 15.27195768147934
SONATE-2                
1 59112U 24043Q   26060.40105189  .00041770  00000+0  72816-3 0  9998
2 59112  97.5380 204.9371 0007840 235.6854 124.3656 15.50586910111145
MESAT1                  
1 60209U 24125G   26060.51794335  .00047518  00000+0  76560-3 0  9993
2 60209  97.2470 276.2804 0011218 254.9072 105.0940 15.52734404 92802
OOV-CUBE (TUBSAT-30)    
1 60240U 24128F   26060.50875514  .00004072  00000+0  31364-3 0  9990
2 60240  61.9932 240.8886 0055212 110.7559 249.9460 15.02173136 89935
COLIBRI-S (RS67S)       
1 61746U 24199M   26060.44965288  .00026187  00000+0  59437-3 0  9993
2 61746  97.3180 293.5727 0008294 321.2345  38.8306 15.42994145120771
HORS 3 (RS81S)          
1 61753U 24199U   26060.50176090  .00038054  00000+0  73413-3 0  9999
2 61753  97.3148 294.6747 0006431 329.4356  30.6518 15.47714696120861
HORS 4 (RS82S)          
1 61754U 24199V   26060.45501307  .00045970  00000+0  80655-3 0  9998
2 61754  97.3127 295.2926 0006207 326.4000  33.6857 15.50394813120902
HORIZON (RS59S)         
1 61757U 24199Y   26060.45520904  .00134671  00000+0  12130-2 0  9994
2 61757  97.3100 298.9049 0003512 305.6661  54.4273 15.67764834121131
ARCTICSAT 1 (RS74S)     
1 61762U 24199AD  26060.44611946  .00106045  00000+0  11195-2 0  9990
2 61762  97.3118 298.4679 0003883 301.0995  58.9883 15.63863448121101
SIT-2086                
1 61764U 24199AF  26060.44462153  .00028251  00000+0  55674-3 0  9999
2 61764  97.3143 295.3565 0006411 308.3270  51.7403 15.47157935117740
RUZAEVKA 390 (RS44S)    
1 61766U 24199AH  26059.93687634  .00713136  22596-3  16220-2 0  9990
2 61766  97.2908 301.5637 0001231 151.2351 208.8995 15.97522590118122
HYPERVIEW 1G (RS66S)    
1 61772U 24199AP  26060.46773828  .00067565  00000+0  94086-3 0  9995
2 61772  97.3110 296.3321 0007406 322.3939  37.6797 15.56695916117821
ALTAIR (RS65S)          
1 61779U 24199AW  26060.48722145  .00015178  00000+0  45111-3 0  9998
2 61779  97.3201 290.6080 0012869 340.0899  19.9840 15.34771255120585
ASRTU-1 (AO-123)        
1 61781U 24199AY  26060.46190806  .00011276  00000+0  34556-3 0  9998
2 61781  97.3176 290.1244 0013637 341.9594  18.1163 15.33862312117402
TUSUR GO (RS78S)        
1 61782U 24199AZ  26060.47050036  .00146991  00000+0  13043-2 0  9990
2 61782  97.3053 297.9310 0004733 322.4347  37.6583 15.68090162117937
SAMSAT-IONOSPHERE (RS7*)
1 61784U 24199BB  26060.46723461  .00041654  00000+0  77345-3 0  9996
2 61784  97.3136 294.4202 0009453 328.9621  31.1070 15.48770553120844
RTU MIREA 1 (RS51S)     
1 61785U 24199BC  26060.47507291  .00047541  00000+0  82745-3 0  9990
2 61785  97.3134 294.8495 0009168 325.0197  35.0452 15.50590047117721
TEVEL2-4                
1 63213U 25052D   26059.67284861  .00020832  00000+0  70825-3 0  9992
2 63213  97.4043 316.1259 0004330 112.3510 247.8190 15.30471958 53499
TEVEL2-5                
1 63214U 25052E   26060.27158351  .00021741  00000+0  74098-3 0  9991
2 63214  97.4041 316.6972 0004355 111.9591 248.2113 15.30382546 53580
TEVEL2-6                
1 63215U 25052F   26060.47734203  .00022997  00000+0  78427-3 0  9994
2 63215  97.4041 316.8888 0004466 111.9746 248.1969 15.30350670 53619
TEVEL2-1                
1 63217U 25052H   26060.21174843  .00020976  00000+0  72507-3 0  9994
2 63217  97.4016 316.3638 0004202 122.3760 237.7888 15.29931347 53563
TEVEL2-3                
1 63218U 25052J   26060.27492242  .00021642  00000+0  74709-3 0  9994
2 63218  97.4020 316.4377 0004241 122.7546 237.4103 15.29968078 53578
TEVEL2-2                
1 63219U 25052K   26060.27782420  .00021508  00000+0  74325-3 0  9990
2 63219  97.4018 316.4308 0004176 122.6943 237.4701 15.29936157 53574
TEVEL2-9                
1 63237U 25052AD  26060.25687720  .00020071  00000+0  73020-3 0  9990
2 63237  97.4080 315.9942 0007077 148.6196 211.5468 15.28250971 53522
TEVEL2-7                
1 63238U 25052AE  26060.47646644  .00019702  00000+0  72123-3 0  9997
2 63238  97.4083 316.1669 0007316 148.3368 211.8313 15.28049764 53550
TEVEL2-8                
1 63239U 25052AF  26060.22142375  .00019029  00000+0  69743-3 0  9999
2 63239  97.4082 315.8947 0007204 149.5961 210.5697 15.28017325 53518
HADES-ICM               
1 63492U 25052BN  26060.27051572  .00134665  00000+0  20333-2 0  9998
2 63492  97.3979 320.4275 0007933 128.0875 232.1095 15.54234589 53833
INNOSAT 16 (RS92S7)     
1 64878U 25155C   26060.44415410  .00009342  00000+0  38773-3 0  9996
2 64878  97.4444  28.0990 0009947 194.4182 165.6773 15.24023674 64259
GEOSCAN 6 (RS92S6)      
1 64879U 25155D   26060.46288087  .00014880  00000+0  55133-3 0  9999
2 64879  97.4442  28.8547 0007503 182.0265 178.0945 15.27712298 64300
GEOSCAN 1 (RS92S1)      
1 64880U 25155E   26060.50090211  .00015681  00000+0  57369-3 0  9999
2 64880  97.4441  28.9616 0007415 181.5283 178.5935 15.28118247 64315
239ALFEROV (RS61S)      
1 64881U 25155F   26060.46912203  .00019562  00000+0  68388-3 0  9994
2 64881  97.4445  29.1845 0007065 179.0433 181.0822 15.29562704 64324
GEOSCAN 2 (RS92S2)      
1 64890U 25155Q   26060.44940232  .00015253  00000+0  55304-3 0  9992
2 64890  97.4439  29.0171 0007369 167.0857 193.0572 15.28420443 64318
GEOSCAN 5 (RS92S5)      
1 64891U 25155R   26060.48107222  .00019230  00000+0  66566-3 0  9992
2 64891  97.4438  29.2913 0005671 181.7197 178.4025 15.29897094 64331
GEOSCAN 4 (RS92S4)      
1 64892U 25155S   26060.47400624  .00019768  00000+0  68205-3 0  9992
2 64892  97.4441  29.3071 0005677 182.1884 177.9333 15.29998988 64336
GEOSCAN 3 (RS92S3)      
1 64893U 25155T   26060.45884982  .00023923  00000+0  79328-3 0  9990
2 64893  97.4435  29.4671 0005303 181.3576 178.7652 15.31247723 64343
INNOSAT 3 (RS92S0)      
1 64894U 25155U   26060.45259243  .00042348  00000+0  12073-2 0  9992
2 64894  97.4406  30.0525 0004752 169.8949 190.2391 15.35937930 64383
